ONEWEB-0208             
1 48243U 21031AK  25080.86808855 -.00000031  00000+0 -11828-3 0  9999
2 48243  87.9078  19.6422 0001796  74.0522 286.0805 13.14503502188885
ONEWEB-0200             
1 48244U 21031AL  25080.83160034 -.00000086  00000+0 -26589-3 0  9997
2 48244  87.9079  19.6430 0001765  72.6879 287.4444 13.14504288188810
ONEWEB-0217             
1 48245U 21031AM  25081.07581023 -.00000511  00000+0 -14119-2 0  9998
2 48245  87.9079  19.5789 0001763  68.3142 291.8176 13.14503161188797
ONEWEB-0211             
1 48767U 21045A   25080.69485559  .00015358  00000+0  40307-1 0  9996
2 48767  87.9130 349.3131 0002598  66.4036 293.7367 13.16198064184925
ONEWEB-0223             
1 48768U 21045B   25081.18454772 -.00000263  00000+0 -73324-3 0  9993
2 48768  87.9131 349.2371 0002210  68.0407 292.0958 13.15547819186119
ONEWEB-0230             
1 48769U 21045C   25081.46026560 -.00000078  00000+0 -24240-3 0  9992
2 48769  87.9117 349.2401 0001945  81.8303 278.3048 13.15548097186385
ONEWEB-0237             
1 48770U 21045D   25081.44917592 -.00000089  00000+0 -27171-3 0  9994
2 48770  87.9141 349.1995 0002069  71.9324 288.2031 13.15548115186127
ONEWEB-0235             
1 48771U 21045E   25081.49987587 -.00000096  00000+0 -29001-3 0  9993
2 48771  87.9128 349.1776 0002330  69.4141 290.7239 13.15548452186111
ONEWEB-0242             
1 48772U 21045F   25080.73295450  .00000155  00000+0  37782-3 0  9990
2 48772  87.9127 349.3159 0002016  79.3436 280.7921 13.15551716184938
ONEWEB-0241             
1 48773U 21045G   25081.48086122 -.00000271  00000+0 -75372-3 0  9996
2 48773  87.9124 349.2384 0001842  65.8120 294.3203 13.15548657186072
ONEWEB-0243             
1 48774U 21045H   25081.13226566  .00000036  00000+0  60510-4 0  9993
2 48774  87.9141 349.2706 0002234  73.7106 286.4270 13.15547027186052
ONEWEB-0222             
1 48775U 21045J   25081.19168755  .00000292  00000+0  74178-3 0  9993
2 48775  87.9125 349.2329 0001850  73.7054 286.4280 13.15547283186090
ONEWEB-0244             
1 48776U 21045K   25081.44600869 -.00000117  00000+0 -34410-3 0  9992
2 48776  87.9128 349.1609 0001992  79.0898 281.0457 13.15547663186691
ONEWEB-0247             
1 48777U 21045L   25081.44284065  .00000034  00000+0  57381-4 0  9998
2 48777  87.9136 349.2239 0002729  67.6941 292.4479 13.15548645186143
ONEWEB-0245             
1 48778U 21045M   25081.43807798  .00000113  00000+0  26484-3 0  9999
2 48778  87.9127 349.1968 0001764  70.4873 289.6448 13.15547218186112
ONEWEB-0229             
1 48779U 21045N   25080.74880670  .00000236  00000+0  59304-3 0  9996
2 48779  87.9132 349.3306 0001974  79.1368 280.9984 13.15548547184927
ONEWEB-0228             
1 48780U 21045P   25080.70617656  .00000027  00000+0  36694-4 0  9992
2 48780  87.9127 349.3157 0001972  75.0684 285.0664 13.15548324184835
ONEWEB-0232             
1 48781U 21045Q   25081.21309147 -.00000021  00000+0 -89478-4 0  9997
2 48781  87.9122 349.2162 0001844  75.1339 284.9995 13.15547603186344
ONEWEB-0231             
1 48782U 21045R   25080.81061010  .00000216  00000+0  54094-3 0  9996
2 48782  87.9116 349.3562 0002075  73.6046 286.5312 13.15547523184865
ONEWEB-0234             
1 48783U 21045S   25081.43886647  .00000114  00000+0  26809-3 0  9997
2 48783  87.9130 349.1813 0000575  62.5040 297.6149 13.15547172186215
ONEWEB-0238             
1 48784U 21045T   25081.16474489 -.00000370  00000+0 -10174-2 0  9998
2 48784  87.9127 349.2513 0001622  76.1957 283.9353 13.15548897186076
ONEWEB-0240             
1 48785U 21045U   25081.17426312  .00000089  00000+0  20336-3 0  9999
2 48785  87.9127 349.2157 0001831  66.4800 293.6522 13.15549053186095
ONEWEB-0246             
1 48786U 21045V   25081.47293372 -.00000307  00000+0 -85011-3 0  9997
2 48786  87.9126 349.1658 0001942  78.8531 281.2818 13.15548805186007
ONEWEB-0210             
1 48787U 21045W   25080.76306790 -.00000030  00000+0 -11475-3 0  9994
2 48787  87.9129 349.3065 0002537  74.3732 285.7678 13.15546504184836
ONEWEB-0214             
1 48788U 21045X   25080.77258222 -.00000098  00000+0 -29341-3 0  9997
2 48788  87.9130 349.2948 0002321  82.4686 277.6707 13.15548231184806
ONEWEB-0221             
1 48789U 21045Y   25080.77892972 -.00000038  00000+0 -13509-3 0  9997
2 48789  87.9131 349.3187 0001897  72.2475 287.8862 13.15549234184892
ONEWEB-0213             
1 48790U 21045Z   25080.76782054 -.00000408  00000+0 -11190-2 0  9991
2 48790  87.9130 349.3296 0002086  72.4651 287.6707 13.15548331184953
ONEWEB-0212             
1 48791U 21045AA  25081.27725085 -.00000159  00000+0 -45572-3 0  9995
2 48791  87.9134 349.2172 0001721  73.4346 286.6974 13.15548563186153
ONEWEB-0227             
1 48792U 21045AB  25081.50463026  .00000212  00000+0  52946-3 0  9997
2 48792  87.9131 349.1848 0001853  73.5491 286.5843 13.15547560186125
ONEWEB-0226             
1 48793U 21045AC  25081.27013228  .00000125  00000+0  29727-3 0  9991
2 48793  87.9132 349.2359 0002176  74.8173 285.3198 13.15548262186057
ONEWEB-0224             
1 48794U 21045AD  25080.77732270 -.00000394  00000+0 -10816-2 0  9999
2 48794  87.9134 349.3659 0001700  44.6125 315.5142 13.15548501184798
ONEWEB-0233             
1 48795U 21045AE  25081.23829455  .00000022  00000+0  25419-4 0  9997
2 48795  87.9131 349.2844 0002002  67.9691 292.1652 13.15548296185982
ONEWEB-0190             
1 48796U 21045AF  25081.45393768 -.00000120  00000+0 -35180-3 0  9991
2 48796  87.9137 349.2051 0002550  65.3704 294.7692 13.15548824186096
ONEWEB-0236             
1 48797U 21045AG  25081.47136727 -.00000149  00000+0 -42980-3 0  9991
2 48797  87.9138 349.2058 0001827  73.5733 286.5598 13.15547825185985
ONEWEB-0248             
1 48798U 21045AH  25081.48403261 -.00000142  00000+0 -41027-3 0  9997
2 48798  87.9125 349.1699 0002006  57.5638 302.5686 13.15548580186143
ONEWEB-0225             
1 48799U 21045AJ  25081.12593510  .00000006  00000+0 -18479-4 0  9990
2 48799  87.9135 349.2659 0001992  69.7919 290.3425 13.15547894186122
ONEWEB-0215             
1 48800U 21045AK  25081.47610100 -.00000432  00000+0 -11822-2 0  9993
2 48800  87.9127 349.1550 0002226  59.9152 300.2199 13.15548139186027
ONEWEB-0216             
1 48801U 21045AL  25080.80110431  .00000165  00000+0  40417-3 0  9996
2 48801  87.9128 349.3329 0001989  83.3156 276.8200 13.15547191184829
ONEWEB-0239             
1 48802U 21045AM  25081.49037179  .00000153  00000+0  37249-3 0  9996
2 48802  87.9137 349.1968 0002118  54.6230 305.5098 13.15547276186096
ONEWEB-0249             
1 48967U 21060A   25080.94618310  .00000027  00000+0  36167-4 0  9995
2 48967  87.9079 318.9302 0001599  79.0298 281.1013 13.16592723180106
ONEWEB-0250             
1 48968U 21060B   25080.94521024  .00000004  00000+0 -20586-4 0  9995
2 48968  87.9078 318.1656 0001885  44.3779 315.7507 13.25705917180290
ONEWEB-0252             
1 48970U 21060D   25080.90184661 -.00000389  00000+0 -10500-2 0  9996
2 48970  87.9083 318.9323 0001890  89.2209 270.9139 13.16594121180140
ONEWEB-0253             
1 48971U 21060E   25080.89076630  .00000026  00000+0  33803-4 0  9990
2 48971  87.9080 318.9404 0001876  77.0087 283.1253 13.16592305180078
ONEWEB-0254             
1 48972U 21060F   25080.90027617 -.00000105  00000+0 -30861-3 0  9994
2 48972  87.9079 318.9214 0001827  65.7731 294.3591 13.16594150180071
ONEWEB-0255             
1 48973U 21060G   25081.16625036  .00000144  00000+0  34285-3 0  9998
2 48973  87.9079 318.9019 0001830  71.6965 288.4365 13.16592214181471
ONEWEB-0256             
1 48974U 21060H   25080.88840019  .00000003  00000+0 -26671-4 0  9993
2 48974  87.9083 318.9691 0001760  86.8567 273.2765 13.16593805180114
ONEWEB-0257             
1 48975U 21060J   25080.92085264 -.00000145  00000+0 -41253-3 0  9992
2 48975  87.9081 318.9253 0001902  77.7202 282.4142 13.16592626181369
ONEWEB-0258             
1 48976U 21060K   25080.92242611 -.00000014  00000+0 -70893-4 0  9992
2 48976  87.9079 318.9526 0001642  79.8042 280.3274 13.16591073181364
ONEWEB-0259             
1 48977U 21060L   25081.22009844 -.00000041  00000+0 -13993-3 0  9993
2 48977  87.9080 318.8780 0001694  76.3216 283.8103 13.16594226181441
ONEWEB-0260             
1 48978U 21060M   25081.36337818  .00000092  00000+0  20608-3 0  9999
2 48978  87.9079 318.8793 0002144  90.9148 269.2228 13.16593307181435
ONEWEB-0261             
1 48979U 21060N   25080.95331327  .00000003  00000+0 -26290-4 0  9990
2 48979  87.9083 318.9614 0002117  73.9930 286.1434 13.16592606180150
ONEWEB-0262             
1 48980U 21060P   25081.16150927  .00000089  00000+0  19793-3 0  9993
2 48980  87.9078 318.8765 0001597  70.6203 289.5100 13.16593254181440
ONEWEB-0263             
1 48981U 21060Q   25080.88918476 -.00000017  00000+0 -77130-4 0  9996
2 48981  87.9085 318.9557 0001936  70.9753 289.1587 13.16592279180078
ONEWEB-0264             
1 48982U 21060R   25080.69839316  .00000021  00000+0  21846-4 0  9997
2 48982  87.9082 319.0024 0001785  80.9160 279.2172 13.16591570180053
ONEWEB-0266             
1 48984U 21060T   25081.40375362  .00000028  00000+0  39835-4 0  9999
2 48984  87.9077 318.8330 0001499  78.6520 281.4779 13.16593270181432
ONEWEB-0267             
1 48985U 21060U   25080.88285210  .00000062  00000+0  12764-3 0  9992
2 48985  87.9080 318.9390 0001977  74.4222 285.7127 13.16592713180072
ONEWEB-0268             
1 48986U 21060V   25080.69918911 -.00000005  00000+0 -45717-4 0  9997
2 48986  87.9080 318.9819 0001811  85.4682 274.6656 13.16593750180311
ONEWEB-0269             
1 48987U 21060W   25081.36416136 -.00000327  00000+0 -88860-3 0  9997
2 48987  87.9085 318.8833 0001691  83.5535 276.5789 13.16593842181472
ONEWEB-0270             
1 48988U 21060X   25080.69762361  .00000028  00000+0  39905-4 0  9990
2 48988  87.9077 318.9867 0001963  70.3124 289.8219 13.16598086180123
